NORAD_CAT_ID,OBJECT_NAME,OBJECT_TYPE,EPOCH,MEAN_MOTION,ECCENTRICITY,INCLINATION,RA_OF_ASC_NODE,ARG_OF_PERICENTER,MEAN_ANOMALY,BSTAR,MEAN_MOTION_DOT,MEAN_MOTION_DDOT,TLE_LINE0,TLE_LINE1,TLE_LINE2,SEMIMAJOR_AXIS,PERIOD,APOGEE,PERIGEE,DECAYED
52656.0,STARLINK-4004,PAYLOAD,2024-02-06 03:16:31,15.08847377,0.0001477,53.2198,337.3666,88.3823,271.7338,5.2607e-05,5.5e-06,0.0,0 STARLINK-4004,1 52656U 22053A   24037.13647548  .00000550  00000-0  52607-4 0  9994,2 52656  53.2198 337.3666 0001477  88.3823 271.7338 15.08847377 95992,6917.858,95.437,540.745,538.701,0.0
52656.0,STARLINK-4004,PAYLOAD,2024-02-07 03:07:19,15.08835418,0.0001522,53.2193,332.906,80.6154,279.501,-4.6398e-06,-3.62e-06,0.0,0 STARLINK-4004,1 52656U 22053A   24038.13008853 -.00000362  00000-0 -46398-5 0  9999,2 52656  53.2193 332.9060 0001522  80.6154 279.5010 15.08835418 96143,6917.894,95.438,540.812,538.706,0.0
52656.0,STARLINK-4004,PAYLOAD,2024-02-07 12:39:38,15.08830566,0.0001595,53.2198,331.1208,83.1503,276.9671,-3.5726e-05,-8.56e-06,0.0,0 STARLINK-4004,1 52656U 22053A   24038.52753411 -.00000856  00000-0 -35726-4 0  9999,2 52656  53.2198 331.1208 0001595  83.1503 276.9671 15.08830566 96209,6917.909,95.438,540.878,538.671,0.0
52656.0,STARLINK-4004,PAYLOAD,2024-02-08 04:33:29,15.08850409,0.0001981,53.2192,328.1484,54.3459,305.7718,0.00012543,1.709e-05,0.0,0 STARLINK-4004,1 52656U 22053A   24039.18992118  .00001709  00000-0  12543-3 0  9998,2 52656  53.2192 328.1484 0001981  54.3459 305.7718 15.08850409 96306,6917.849,95.437,541.084,538.343,0.0
52656.0,STARLINK-4004,PAYLOAD,2024-02-08 18:51:57,15.08839646,0.0001382,53.218,325.4717,94.3425,265.7725,6.2259e-05,7.03e-06,0.0,0 STARLINK-4004,1 52656U 22053A   24039.78608758  .00000703  00000-0  62259-4 0  9991,2 52656  53.2180 325.4717 0001382  94.3425 265.7725 15.08839646 96396,6917.881,95.438,540.703,538.79,0.0
52656.0,STARLINK-4004,PAYLOAD,2024-02-09 01:13:30,15.08845937,0.0001496,53.2175,324.2858,94.278,265.8383,0.00010284,1.349e-05,0.0,0 STARLINK-4004,1 52656U 22053A   24040.05104196  .00001349  00000-0  10284-3 0  9997,2 52656  53.2175 324.2858 0001496  94.2780 265.8383 15.08845937 96438,6917.862,95.437,540.762,538.692,0.0
52656.0,STARLINK-4004,PAYLOAD,2024-02-10 01:04:17,15.08840914,0.0001403,53.2181,319.8211,96.4816,263.6336,-3.517e-05,-8.48e-06,0.0,0 STARLINK-4004,1 52656U 22053A   24041.04465074 -.00000848  00000-0 -35170-4 0  9999,2 52656  53.2181 319.8211 0001403  96.4816 263.6336 15.08840914 96580,6917.878,95.437,540.713,538.772,0.0
52656.0,STARLINK-4004,PAYLOAD,2024-02-10 04:15:03,15.08842156,0.0001373,53.2178,319.2241,97.3711,262.7437,-1.3801e-05,-5.08e-06,0.0,0 STARLINK-4004,1 52656U 22053A   24041.17712913 -.00000508  00000-0 -13801-4 0  9990,2 52656  53.2178 319.2241 0001373  97.3711 262.7437 15.08842156 96608,6917.874,95.437,540.689,538.789,0.0
52656.0,STARLINK-4004,PAYLOAD,2024-02-10 21:44:17,15.08852784,0.000144,53.2186,315.9561,110.676,249.4387,8.5276e-06,-1.52e-06,0.0,0 STARLINK-4004,1 52656U 22053A   24041.90576035 -.00000152  00000-0  85276-5 0  9994,2 52656  53.2186 315.9561 0001440 110.6760 249.4387 15.08852784 96719,6917.841,95.437,540.702,538.71,0.0
52656.0,STARLINK-4004,PAYLOAD,2024-02-11 00:55:04,15.08849861,0.0001404,53.2181,315.364,94.325,265.7902,2.0922e-05,4.5e-07,0.0,0 STARLINK-4004,1 52656U 22053A   24042.03824229  .00000045  00000-0  20922-4 0  9996,2 52656  53.2181 315.3640 0001404  94.3250 265.7902 15.08849861 96736,6917.85,95.437,540.687,538.744,0.0
52656.0,STARLINK-4004,PAYLOAD,2024-02-11 21:35:05,15.08838928,0.0001304,53.2186,311.4984,107.823,252.2904,3.2793e-05,2.34e-06,0.0,0 STARLINK-4004,1 52656U 22053A   24042.89936786  .00000234  00000-0  32793-4 0  9991,2 52656  53.2186 311.4984 0001304 107.8230 252.2904 15.08838928 96865,6917.884,95.438,540.651,538.847,0.0
52656.0,STARLINK-4004,PAYLOAD,2024-02-12 00:45:51,15.08842038,0.0001428,53.2193,310.9048,112.1972,247.9172,7.0156e-05,8.29e-06,0.0,0 STARLINK-4004,1 52656U 22053A   24043.03184447  .00000829  00000-0  70156-4 0  9992,2 52656  53.2193 310.9048 0001428 112.1972 247.9172 15.08842038 96884,6917.874,95.437,540.727,538.751,0.0
52656.0,STARLINK-4004,PAYLOAD,2024-02-12 18:15:07,15.08833252,0.0001315,53.2189,307.6323,95.6331,264.4811,-6.6963e-05,-1.353e-05,0.0,0 STARLINK-4004,1 52656U 22053A   24043.76049825 -.00001353  00000-0 -66963-4 0  9998,2 52656  53.2189 307.6323 0001315  95.6331 264.4811 15.08833252 96991,6917.901,95.438,540.676,538.856,0.0
52656.0,STARLINK-4004,PAYLOAD,2024-02-12 21:25:53,15.08835643,0.0001408,53.2188,307.0364,106.8079,253.3068,-7.204e-05,-1.434e-05,0.0,0 STARLINK-4004,1 52656U 22053A   24043.89297600 -.00001434  00000-0 -72040-4 0  9991,2 52656  53.2188 307.0364 0001408 106.8079 253.3068 15.08835643 97017,6917.894,95.438,540.733,538.785,0.0
52656.0,STARLINK-4004,PAYLOAD,2024-02-13 02:12:02,15.08839334,0.0001456,53.2187,306.1448,101.0557,259.0599,-1.6265e-05,-5.47e-06,0.0,0 STARLINK-4004,1 52656U 22053A   24044.09169296 -.00000547  00000-0 -16265-4 0  9994,2 52656  53.2187 306.1448 0001456 101.0557 259.0599 15.08839334 97046,6917.882,95.438,540.755,538.74,0.0
52656.0,STARLINK-4004,PAYLOAD,2024-02-13 10:08:58,15.08841251,0.0001593,53.2183,304.6575,68.3075,291.8087,-1.4807e-05,-5.24e-06,0.0,0 STARLINK-4004,1 52656U 22053A   24044.42289372 -.00000524  00000-0 -14807-4 0  9994,2 52656  53.2183 304.6575 0001593  68.3075 291.8087 15.08841251 97090,6917.877,95.437,540.844,538.64,0.0
52656.0,STARLINK-4004,PAYLOAD,2024-02-13 22:52:03,15.08842717,0.0001402,53.2185,302.279,97.654,262.4612,-2.6384e-05,-7.08e-06,0.0,0 STARLINK-4004,1 52656U 22053A   24044.95281461 -.00000708  00000-0 -26384-4 0  9990,2 52656  53.2185 302.2790 0001402  97.6540 262.4612 15.08842717 97171,6917.872,95.437,540.707,538.767,0.0
52656.0,STARLINK-4004,PAYLOAD,2024-02-14 03:38:11,15.0885553,0.0001166,53.2171,301.3843,104.9523,255.1598,7.2767e-05,8.71e-06,0.0,0 STARLINK-4004,1 52656U 22053A   24045.15152059  .00000871  00000-0  72767-4 0  9998,2 52656  53.2171 301.3843 0001166 104.9523 255.1598 15.08855530 97208,6917.833,95.437,540.505,538.891,0.0
52656.0,STARLINK-4004,PAYLOAD,2024-02-14 09:59:44,15.08848905,0.0001266,53.2175,300.1921,82.7897,277.3239,5.4e-05,5.72e-06,0.0,0 STARLINK-4004,1 52656U 22053A   24045.41648498  .00000572  00000-0  54000-4 0  9992,2 52656  53.2175 300.1921 0001266  82.7897 277.3239 15.08848905 97244,6917.853,95.437,540.594,538.842,0.0
52656.0,STARLINK-4004,PAYLOAD,2024-02-14 22:42:50,15.08836066,0.0001742,53.2183,297.8152,100.1995,259.9194,4.6273e-05,4.48e-06,0.0,0 STARLINK-4004,1 52656U 22053A   24045.94641705  .00000448  00000-0  46273-4 0  9999,2 52656  53.2183 297.8152 0001742 100.1995 259.9194 15.08836066 97324,6917.892,95.438,540.963,538.552,0.0
52656.0,STARLINK-4004,PAYLOAD,2024-02-15 01:53:36,15.08843584,0.0001614,53.2181,297.2219,90.8386,269.2791,0.00011019,1.466e-05,0.0,0 STARLINK-4004,1 52656U 22053A   24046.07889075  .00001466  00000-0  11019-3 0  9998,2 52656  53.2181 297.2219 0001614  90.8386 269.2791 15.08843584 97349,6917.869,95.437,540.851,538.618,0.0
52656.0,STARLINK-4004,PAYLOAD,2024-02-15 16:12:06,15.08820537,0.0001333,53.218,294.5464,87.5249,272.5895,-8.5803e-05,-1.652e-05,0.0,0 STARLINK-4004,1 52656U 22053A   24046.67507474 -.00001652  00000-0 -85803-4 0  9996,2 52656  53.2180 294.5464 0001333  87.5249 272.5895 15.08820537 97434,6917.94,95.439,540.727,538.883,0.0
52656.0,STARLINK-4004,PAYLOAD,2024-02-15 22:33:39,15.08822462,0.000162,53.2186,293.3575,90.6424,269.4754,-7.7242e-05,-1.517e-05,0.0,0 STARLINK-4004,1 52656U 22053A   24046.94003632 -.00001517  00000-0 -77242-4 0  9991,2 52656  53.2186 293.3575 0001620  90.6424 269.4754 15.08822462 97471,6917.934,95.439,540.92,538.678,0.0
52656.0,STARLINK-4004,PAYLOAD,2024-02-16 01:44:25,15.08830005,0.0001573,53.218,292.7606,86.225,273.8922,-0.00010787,-2.004e-05,0.0,0 STARLINK-4004,1 52656U 22053A   24047.07251351 -.00002004  00000-0 -10787-3 0  9991,2 52656  53.2180 292.7606 0001573  86.2250 273.8922 15.08830005 97498,6917.911,95.438,540.864,538.688,0.0
52656.0,STARLINK-4004,PAYLOAD,2024-02-16 09:41:20,15.0883843,0.0001539,53.219,291.2741,88.6057,271.5111,-2.1539e-05,-6.31e-06,0.0,0 STARLINK-4004,1 52656U 22053A   24047.40370661 -.00000631  00000-0 -21539-4 0  9996,2 52656  53.2190 291.2741 0001539  88.6057 271.5111 15.08838430 97547,6917.885,95.438,540.815,538.686,0.0
52656.0,STARLINK-4004,PAYLOAD,2024-02-16 22:24:24,15.08852125,0.0001308,53.2167,288.8968,86.4103,273.7039,8.4745e-05,1.061e-05,0.0,0 STARLINK-4004,1 52656U 22053A   24047.93361462  .00001061  00000-0  84745-4 0  9997,2 52656  53.2167 288.8968 0001308  86.4103 273.7039 15.08852125 97625,6917.843,95.437,540.613,538.803,0.0
52656.0,STARLINK-4004,PAYLOAD,2024-02-17 09:32:06,15.08852951,0.0001608,53.2168,286.8171,70.6294,289.4871,6.6204e-05,7.66e-06,0.0,0 STARLINK-4004,1 52656U 22053A   24048.39729319  .00000766  00000-0  66204-4 0  9998,2 52656  53.2168 286.8171 0001608  70.6294 289.4871 15.08852951 97691,6917.841,95.437,540.818,538.593,0.0
52656.0,STARLINK-4004,PAYLOAD,2024-02-17 19:04:25,15.08834793,0.0001579,53.2173,285.0321,79.4253,280.6917,0.00019359,2.794e-05,0.0,0 STARLINK-4004,1 52656U 22053A   24048.79474307  .00002794  00000-0  19359-3 0  9997,2 52656  53.2173 285.0321 0001579  79.4253 280.6917 15.08834793 97759,6917.896,95.438,540.854,538.669,0.0
52656.0,STARLINK-4004,PAYLOAD,2024-02-17 22:15:11,15.08840421,0.0001508,53.2179,284.4354,90.1901,269.9264,0.00016821,2.39e-05,0.0,0 STARLINK-4004,1 52656U 22053A   24048.92722013  .00002390  00000-0  16821-3 0  9995,2 52656  53.2179 284.4354 0001508  90.1901 269.9264 15.08840421 97778,6917.879,95.438,540.787,538.701,0.0
52656.0,STARLINK-4004,PAYLOAD,2024-02-18 01:25:57,15.08842382,0.0001546,53.2181,283.8406,89.7972,270.3197,0.00017624,2.518e-05,0.0,0 STARLINK-4004,1 52656U 22053A   24049.05969836  .00002518  00000-0  17624-3 0  9990,2 52656  53.2181 283.8406 0001546  89.7972 270.3197 15.08842382 97797,6917.873,95.437,540.808,538.669,0.0
